[{"OBJECT_NAME":"STARLINK-32922","OBJECT_ID":"2025-027V","EPOCH":"2026-03-09T04:29:27.650112","MEAN_MOTION":15.27595304,"ECCENTRICITY":0.00011783,"INCLINATION":42.9987,"RA_OF_ASC_NODE":131.8589,"ARG_OF_PERICENTER":254.2597,"MEAN_ANOMALY":105.8125,"EPHEMERIS_TYPE":0,"CLASSIFICATION_TYPE":"U","NORAD_CAT_ID":62926,"ELEMENT_SET_NO":999,"REV_AT_EPOCH":6146,"BSTAR":0.0011823372,"MEAN_MOTION_DOT":0.00032432,"MEAN_MOTION_DDOT":0},{"OBJECT_NAME":"TEVEL2-4","OBJECT_ID":"2025-052D","EPOCH":"2026-03-09T16:39:37.129536","MEAN_MOTION":15.30925813,"ECCENTRICITY":0.0004733,"INCLINATION":97.4009,"RA_OF_ASC_NODE":325.1237,"ARG_OF_PERICENTER":95.3468,"MEAN_ANOMALY":264.8313,"EPHEMERIS_TYPE":0,"CLASSIFICATION_TYPE":"U","NORAD_CAT_ID":63213,"ELEMENT_SET_NO":999,"REV_AT_EPOCH":5487,"BSTAR":0.00070362503,"MEAN_MOTION_DOT":0.0002099,"MEAN_MOTION_DDOT":0}]
