STARLINK-32922          
1 62926U 25027V   26068.18712558  .00032432  00000+0  11823-2 0  9990
2 62926  42.9987 131.8589 0001178 254.2597 105.8125 15.27595304 61462
TEVEL2-4                
1 63213U 25052D   26068.69417973  .00020990  00000+0  70363-3 0  9998
2 63213  97.4009 325.1237 0004733  95.3468 264.8313 15.30925813 54879
